NORAD_CAT_ID,OBJECT_NAME,OBJECT_TYPE,EPOCH,MEAN_MOTION,ECCENTRICITY,INCLINATION,RA_OF_ASC_NODE,ARG_OF_PERICENTER,MEAN_ANOMALY,BSTAR,MEAN_MOTION_DOT,MEAN_MOTION_DDOT,TLE_LINE0,TLE_LINE1,TLE_LINE2,SEMIMAJOR_AXIS,PERIOD,APOGEE,PERIGEE,DECAYED
53262.0,STARLINK-4085,PAYLOAD,2023-06-14 15:27:02,15.08811419,8.47e-05,53.2178,359.011,75.7002,284.4084,-0.00016432,-2.9e-05,0.0,0 STARLINK-4085,1 53262U 22086W   23165.64377475 -.00002900  00000-0 -16432-3 0  9998,2 53262  53.2178 359.0110 0000847  75.7002 284.4084 15.08811419 50064,6917.968,95.439,540.419,539.247,0.0
53262.0,STARLINK-4085,PAYLOAD,2023-06-15 00:59:21,15.0881548,7.77e-05,53.2179,357.227,75.5901,284.5177,-0.000113,-2.084e-05,0.0,0 STARLINK-4085,1 53262U 22086W   23166.04121698 -.00002084  00000-0 -11300-3 0  9999,2 53262  53.2179 357.2270 0000777  75.5901 284.5177 15.08815480 50123,6917.955,95.439,540.358,539.283,0.0
53262.0,STARLINK-4085,PAYLOAD,2023-06-15 12:07:00,15.08849545,5.12e-05,53.218,355.1452,81.31,278.795,0.0001131,1.513e-05,0.0,0 STARLINK-4085,1 53262U 22086W   23166.50487075  .00001513  00000-0  11310-3 0  9999,2 53262  53.2180 355.1452 0000512  81.3100 278.7950 15.08849545 50377,6917.851,95.437,540.07,539.362,0.0
53262.0,STARLINK-4085,PAYLOAD,2023-06-15 18:28:32,15.08857463,8.42e-05,53.2177,353.956,84.0406,276.0683,0.00018205,2.612e-05,0.0,0 STARLINK-4085,1 53262U 22086W   23166.76982320  .00002612  00000-0  18205-3 0  9991,2 53262  53.2177 353.9560 0000842  84.0406 276.0683 15.08857463 50231,6917.827,95.436,540.274,539.11,0.0
53262.0,STARLINK-4085,PAYLOAD,2023-06-16 05:36:14,15.08854443,9.75e-05,53.2179,351.8748,85.9856,274.1248,0.00014605,2.038e-05,0.0,0 STARLINK-4085,1 53262U 22086W   23167.23350410  .00002038  00000-0  14605-3 0  9995,2 53262  53.2179 351.8748 0000975  85.9856 274.1248 15.08854443 50303,6917.836,95.437,540.376,539.027,0.0
53262.0,STARLINK-4085,PAYLOAD,2023-06-16 15:08:34,15.08846619,6.59e-05,53.217,350.0894,86.4161,273.6906,0.00047525,7.285e-05,0.0,0 STARLINK-4085,1 53262U 22086W   23167.63095078  .00007285  00000-0  47525-3 0  9991,2 53262  53.2170 350.0894 0000659  86.4161 273.6906 15.08846619 50368,6917.86,95.437,540.181,539.269,0.0
53262.0,STARLINK-4085,PAYLOAD,2023-06-16 18:19:19,15.08853641,5.18e-05,53.2166,349.4943,95.5073,264.5979,0.00050051,7.69e-05,0.0,0 STARLINK-4085,1 53262U 22086W   23167.76342590  .00007690  00000-0  50051-3 0  9997,2 53262  53.2166 349.4943 0000518  95.5073 264.5979 15.08853641 50561,6917.839,95.437,540.062,539.345,0.0
53262.0,STARLINK-4085,PAYLOAD,2023-06-16 21:30:05,15.08858794,5.46e-05,53.2171,348.8998,92.1343,267.9712,0.00052317,8.053e-05,0.0,0 STARLINK-4085,1 53262U 22086W   23167.89590241  .00008053  00000-0  52317-3 0  9990,2 53262  53.2171 348.8998 0000546  92.1343 267.9712 15.08858794 50403,6917.823,95.436,540.066,539.31,0.0
53262.0,STARLINK-4085,PAYLOAD,2023-06-17 05:27:02,15.08834258,7.14e-05,53.2168,347.4145,63.7252,296.3813,3.0702e-05,2.01e-06,0.0,0 STARLINK-4085,1 53262U 22086W   23168.22711477  .00000201  00000-0  30702-4 0  9996,2 53262  53.2168 347.4145 0000714  63.7252 296.3813 15.08834258 50450,6917.898,95.438,540.257,539.269,0.0
53262.0,STARLINK-4085,PAYLOAD,2023-06-17 11:48:35,15.08837006,0.0001137,53.217,346.2249,70.2433,289.8681,-0.00022251,-3.827e-05,0.0,0 STARLINK-4085,1 53262U 22086W   23168.49207379 -.00003827  00000-0 -22251-3 0  9994,2 53262  53.2170 346.2249 0001137  70.2433 289.8681 15.08837006 50677,6917.89,95.438,540.541,538.968,0.0
53262.0,STARLINK-4085,PAYLOAD,2023-06-17 18:10:07,15.08831479,0.0001065,53.2169,345.0347,74.9317,285.1793,-0.00032358,-5.433e-05,0.0,0 STARLINK-4085,1 53262U 22086W   23168.75703355 -.00005433  00000-0 -32358-3 0  9992,2 53262  53.2169 345.0347 0001065  74.9317 285.1793 15.08831479 50719,6917.906,95.438,540.508,539.035,0.0
53262.0,STARLINK-4085,PAYLOAD,2023-06-18 11:39:22,15.08838504,5.65e-05,53.2172,341.7624,61.7722,298.3327,7.1595e-05,8.52e-06,0.0,0 STARLINK-4085,1 53262U 22086W   23169.48567640  .00000852  00000-0  71595-4 0  9993,2 53262  53.2172 341.7624 0000565  61.7722 298.3327 15.08838504 50829,6917.885,95.438,540.141,539.359,0.0
53262.0,STARLINK-4085,PAYLOAD,2023-06-18 18:00:54,15.08843668,6.58e-05,53.217,340.5732,59.1136,300.9921,0.00030775,4.614e-05,0.0,0 STARLINK-4085,1 53262U 22086W   23169.75063599  .00004614  00000-0  30775-3 0  9991,2 53262  53.2170 340.5732 0000658  59.1136 300.9921 15.08843668 50688,6917.869,95.437,540.189,539.279,0.0
53262.0,STARLINK-4085,PAYLOAD,2023-06-19 17:51:41,15.08858528,7.98e-05,53.2169,336.1136,45.5908,314.5149,0.00055909,8.626e-05,0.0,0 STARLINK-4085,1 53262U 22086W   23170.74423196  .00008626  00000-0  55909-3 0  9998,2 53262  53.2169 336.1136 0000798  45.5908 314.5149 15.08858528 51018,6917.824,95.436,540.241,539.137,0.0
53262.0,STARLINK-4085,PAYLOAD,2023-06-20 09:45:33,15.08848836,9.01e-05,53.2172,333.1396,38.3675,321.7381,0.00015607,2.198e-05,0.0,0 STARLINK-4085,1 53262U 22086W   23171.40663204  .00002198  00000-0  15607-3 0  9997,2 53262  53.2172 333.1396 0000901  38.3675 321.7381 15.08848836 50933,6917.853,95.437,540.342,539.095,0.0
53262.0,STARLINK-4085,PAYLOAD,2023-06-20 11:20:56,15.08848656,8.95e-05,53.2171,332.8427,38.4677,321.6379,0.00014939,2.091e-05,0.0,0 STARLINK-4085,1 53262U 22086W   23171.47287169  .00002091  00000-0  14939-3 0  9995,2 53262  53.2171 332.8427 0000895  38.4677 321.6379 15.08848656 51126,6917.854,95.437,540.338,539.1,0.0
53262.0,STARLINK-4085,PAYLOAD,2023-06-20 16:07:05,15.08846001,7.62e-05,53.2173,331.9506,46.1985,313.907,9.6938e-05,1.256e-05,0.0,0 STARLINK-4085,1 53262U 22086W   23171.67159152  .00001256  00000-0  96938-4 0  9999,2 53262  53.2173 331.9506 0000762  46.1985 313.9070 15.08846001 51154,6917.862,95.437,540.254,539.2,0.0
53262.0,STARLINK-4085,PAYLOAD,2023-06-21 03:14:47,15.0884316,9.34e-05,53.2174,329.8688,41.2031,318.9031,0.00012781,1.747e-05,0.0,0 STARLINK-4085,1 53262U 22086W   23172.13527240  .00001747  00000-0  12781-3 0  9996,2 53262  53.2174 329.8688 0000934  41.2031 318.9031 15.08843160 51044,6917.871,95.437,540.382,539.09,0.0
53262.0,STARLINK-4085,PAYLOAD,2023-06-21 17:33:15,15.08843053,5.73e-05,53.2165,327.1948,55.5967,304.5079,-1.3166e-05,-4.97e-06,0.0,0 STARLINK-4085,1 53262U 22086W   23172.73143217 -.00000497  00000-0 -13166-4 0  9992,2 53262  53.2165 327.1948 0000573  55.5967 304.5079 15.08843053 51313,6917.871,95.437,540.132,539.34,0.0
53262.0,STARLINK-4085,PAYLOAD,2023-06-22 03:05:34,15.08838897,6.09e-05,53.2168,325.4102,58.208,301.8972,-4.5232e-05,-1.007e-05,0.0,0 STARLINK-4085,1 53262U 22086W   23173.12887373 -.00001007  00000-0 -45232-4 0  9991,2 53262  53.2168 325.4102 0000609  58.2080 301.8972 15.08838897 51193,6917.884,95.438,540.17,539.327,0.0
53262.0,STARLINK-4085,PAYLOAD,2023-06-23 10:53:17,15.08837244,5.8e-05,53.2174,319.4626,73.2067,286.8989,0.00011757,1.584e-05,0.0,0 STARLINK-4085,1 53262U 22086W   23174.45367962  .00001584  00000-0  11757-3 0  9997,2 53262  53.2174 319.4626 0000580  73.2067 286.8989 15.08837244 51391,6917.889,95.438,540.155,539.353,0.0
53262.0,STARLINK-4085,PAYLOAD,2023-06-23 17:14:49,15.08850338,5.84e-05,53.2177,318.2727,67.4391,292.6663,0.00014186,1.971e-05,0.0,0 STARLINK-4085,1 53262U 22086W   23174.71863094  .00001971  00000-0  14186-3 0  9992,2 53262  53.2177 318.2727 0000584  67.4391 292.6663 15.08850338 51430,6917.849,95.437,540.118,539.31,0.0
53262.0,STARLINK-4085,PAYLOAD,2023-06-24 02:47:08,15.08844356,5.53e-05,53.217,316.4889,68.5135,291.5916,8.4416e-05,1.056e-05,0.0,0 STARLINK-4085,1 53262U 22086W   23175.11607410  .00001056  00000-0  84416-4 0  9993,2 53262  53.2170 316.4889 0000553  68.5135 291.5916 15.08844356 51494,6917.867,95.437,540.115,539.35,0.0
53262.0,STARLINK-4085,PAYLOAD,2023-06-25 08:59:28,15.08839176,7.34e-05,53.2167,310.8388,85.9758,274.1318,8.7754e-05,1.109e-05,0.0,0 STARLINK-4085,1 53262U 22086W   23176.37463861  .00001109  00000-0  87754-4 0  9999,2 53262  53.2167 310.8388 0000734  85.9758 274.1318 15.08839176 51685,6917.883,95.438,540.256,539.24,0.0
53262.0,STARLINK-4085,PAYLOAD,2023-06-26 15:11:48,15.0883997,8.34e-05,53.2171,305.1869,117.2792,242.8285,3.1341e-05,2.11e-06,0.0,0 STARLINK-4085,1 53262U 22086W   23177.63319932  .00000211  00000-0  31341-4 0  9992,2 53262  53.2171 305.1869 0000834 117.2792 242.8285 15.08839970 51877,6917.88,95.438,540.322,539.169,0.0
53262.0,STARLINK-4085,PAYLOAD,2023-06-28 00:34:54,15.08841384,6.24e-05,53.2165,298.9455,86.8557,273.2507,4.6181e-05,4.47e-06,0.0,0 STARLINK-4085,1 53262U 22086W   23179.02424108  .00000447  00000-0  46181-4 0  9998,2 53262  53.2165 298.9455 0000624  86.8557 273.2507 15.08841384 52088,6917.876,95.437,540.173,539.309,0.0
53262.0,STARLINK-4085,PAYLOAD,2023-06-29 09:58:00,15.08833697,4.17e-05,53.2174,292.7016,73.5435,286.5603,-7.1954e-05,-1.432e-05,0.0,0 STARLINK-4085,1 53262U 22086W   23180.41528577 -.00001432  00000-0 -71954-4 0  9991,2 53262  53.2174 292.7016 0000417  73.5435 286.5603 15.08833697 52296,6917.9,95.438,540.053,539.476,0.0
53262.0,STARLINK-4085,PAYLOAD,2023-06-29 16:19:33,15.08842938,6.49e-05,53.2178,291.512,95.0424,265.0642,8.2739e-05,1.03e-05,0.0,0 STARLINK-4085,1 53262U 22086W   23180.68024320  .00001030  00000-0  82739-4 0  9992,2 53262  53.2178 291.5120 0000649  95.0424 265.0642 15.08842938 52335,6917.871,95.437,540.185,539.287,0.0
53262.0,STARLINK-4085,PAYLOAD,2023-07-01 00:07:15,15.0884133,7.54e-05,53.2165,285.5641,82.0423,278.0655,4.6263e-05,4.49e-06,0.0,0 STARLINK-4085,1 53262U 22086W   23182.00504165  .00000449  00000-0  46263-4 0  9995,2 53262  53.2165 285.5641 0000754  82.0423 278.0655 15.08841330 52539,6917.876,95.437,540.263,539.22,0.0
53262.0,STARLINK-4085,PAYLOAD,2023-07-01 06:28:48,15.08834194,6.2e-05,53.2167,284.375,83.6043,276.5019,4.5375e-05,4.35e-06,0.0,0 STARLINK-4085,1 53262U 22086W   23182.27000609  .00000435  00000-0  45375-4 0  9996,2 53262  53.2167 284.3750 0000620  83.6043 276.5019 15.08834194 52577,6917.898,95.438,540.192,539.334,0.0
